[{"OBJECT_NAME":"TIANMU-1 15","OBJECT_ID":"2024-004A","EPOCH":"2026-03-09T23:35:22.816608","MEAN_MOTION":15.25840188,"ECCENTRICITY":0.00066612,"INCLINATION":97.4675,"RA_OF_ASC_NODE":255.2203,"ARG_OF_PERICENTER":349.0037,"MEAN_ANOMALY":11.1054,"EPHEMERIS_TYPE":0,"CLASSIFICATION_TYPE":"U","NORAD_CAT_ID":58700,"ELEMENT_SET_NO":999,"REV_AT_EPOCH":12064,"BSTAR":0.0003159702,"MEAN_MOTION_DOT":8.018e-5,"MEAN_MOTION_DDOT":0},{"OBJECT_NAME":"STARLINK-36038","OBJECT_ID":"2025-278P","EPOCH":"2026-03-09T12:13:33.166560","MEAN_MOTION":15.27579655,"ECCENTRICITY":0.00014362,"INCLINATION":43.0035,"RA_OF_ASC_NODE":115.2016,"ARG_OF_PERICENTER":258.053,"MEAN_ANOMALY":102.016,"EPHEMERIS_TYPE":0,"CLASSIFICATION_TYPE":"U","NORAD_CAT_ID":66804,"ELEMENT_SET_NO":999,"REV_AT_EPOCH":1518,"BSTAR":0.00094757059,"MEAN_MOTION_DOT":0.00025904,"MEAN_MOTION_DDOT":0}]
